SL-8 R/B                
1 21088U 91006B   26080.99508465  .00000099  00000+0  83964-4 0  9998
2 21088  82.9457 160.8979 0022308   4.5191 168.2767 13.77495959765768
OKEAN-3                 
1 21397U 91039A   26080.91384120  .00002688  00000+0  18792-3 0  9991
2 21397  82.5180 325.0017 0012685 291.3139  68.6733 15.04880250866877
COSMOS 2151             
1 21422U 91042A   26080.88991990  .00001812  00000+0  14285-3 0  9990
2 21422  82.4937  71.9035 0013131  25.9853 334.2028 15.00153148865023
SL-14 R/B               
1 21423U 91042B   26080.84481544  .00000486  00000+0  58402-4 0  9992
2 21423  82.4945 208.7855 0016609 196.5076 163.5600 14.81841645854872
ERS-1                   
1 21574U 91050A   26080.93123722  .00000278  00000+0  10352-3 0  9999
2 21574  98.7872  99.4731 0032315 164.1269 196.0939 14.39458130817492
ARIANE 40 R/B           
1 21610U 91050F   26080.88371953  .00000256  00000+0  89126-4 0  9997
2 21610  98.1987 132.6611 0003941  54.4931 305.6627 14.42901839820759
INTERCOSMOS 25          
1 21819U 91086A   26080.87502579  .00001643  00000+0  31466-3 0  9990
2 21819  82.6029 302.6427 1486770  90.6785 286.4245 12.12041629498169
SL-8 R/B                
1 21876U 92008B   26080.95893981  .00000001  00000+0 -15305-4 0  9990
2 21876  82.9223 258.6486 0035910 100.1688  63.3013 13.75969565711105
SL-8 R/B                
1 21938U 92020B   26080.93503009  .00000046  00000+0  32318-4 0  9991
2 21938  82.9318 144.6705 0027579 262.9742 270.1032 13.75550280702814
USA 81                  
1 21949U 92023A   26080.81403221  .00000154  00000+0  49748-4 0  9993
2 21949  85.0061 124.4453 0002088  69.6759 290.4658 14.32371672 96522
COSMOS 2219             
1 22219U 92076A   26080.90014928 -.00000141  00000+0 -49483-4 0  9998
2 22219  71.0638 352.5453 0018269 189.6632 170.4142 14.14092986720104
SL-16 R/B               
1 22220U 92076B   26081.00287038  .00000269  00000+0  15809-3 0  9999
2 22220  71.0007 162.4385 0010628  73.4816  99.5525 14.16862142723574
COSMOS 2221             
1 22236U 92080A   26080.87580824  .00002003  00000+0  17485-3 0  9994
2 22236  82.5001 267.4046 0015062 147.0363 213.1801 14.96247941782617
SL-16 R/B               
1 22285U 92093B   26080.89477166  .00000323  00000+0  18997-3 0  9990
2 22285  71.0237 338.6464 0006314 281.4520  78.5893 14.15449890714884
COSMOS 2228             
1 22286U 92094A   26080.88404463  .00002903  00000+0  24792-3 0  9997
2 22286  82.5178 225.6335 0016595 260.1072  99.8277 14.97249714777880
SL-16 R/B               
1 22566U 93016B   26080.72434974 -.00000237  00000+0 -97246-4 0  9991
2 22566  71.0080 189.9063 0012351 298.4496  61.5381 14.15306825703873
COSMOS 2242             
1 22626U 93024A   26080.93834227  .00002005  00000+0  17351-3 0  9996
2 22626  82.5153 254.9971 0014908 263.8566  96.0958 14.96598199782228
