[{"OBJECT_NAME":"SL-8 R/B","OBJECT_ID":"1991-006B","EPOCH":"2026-03-21T23:52:55.313760","MEAN_MOTION":13.77495959,"ECCENTRICITY":0.00223087,"INCLINATION":82.9457,"RA_OF_ASC_NODE":160.8979,"ARG_OF_PERICENTER":4.5191,"MEAN_ANOMALY":168.2767,"EPHEMERIS_TYPE":0,"CLASSIFICATION_TYPE":"U","NORAD_CAT_ID":21088,"ELEMENT_SET_NO":999,"REV_AT_EPOCH":76576,"BSTAR":8.3964243e-5,"MEAN_MOTION_DOT":9.9e-7,"MEAN_MOTION_DDOT":0},{"OBJECT_NAME":"OKEAN-3","OBJECT_ID":"1991-039A","EPOCH":"2026-03-21T21:55:55.879680","MEAN_MOTION":15.0488025,"ECCENTRICITY":0.00126851,"INCLINATION":82.518,"RA_OF_ASC_NODE":325.0017,"ARG_OF_PERICENTER":291.3139,"MEAN_ANOMALY":68.6733,"EPHEMERIS_TYPE":0,"CLASSIFICATION_TYPE":"U","NORAD_CAT_ID":21397,"ELEMENT_SET_NO":999,"REV_AT_EPOCH":86687,"BSTAR":0.00018791993,"MEAN_MOTION_DOT":2.688e-5,"MEAN_MOTION_DDOT":0},{"OBJECT_NAME":"COSMOS 2151","OBJECT_ID":"1991-042A","EPOCH":"2026-03-21T21:21:29.079360","MEAN_MOTION":15.00153148,"ECCENTRICITY":0.00131319,"INCLINATION":82.4937,"RA_OF_ASC_NODE":71.9035,"ARG_OF_PERICENTER":25.9853,"MEAN_ANOMALY":334.2028,"EPHEMERIS_TYPE":0,"CLASSIFICATION_TYPE":"U","NORAD_CAT_ID":21422,"ELEMENT_SET_NO":999,"REV_AT_EPOCH":86502,"BSTAR":0.00014284945,"MEAN_MOTION_DOT":1.812e-5,"MEAN_MOTION_DDOT":0},{"OBJECT_NAME":"SL-14 R/B","OBJECT_ID":"1991-042B","EPOCH":"2026-03-21T20:16:32.054016","MEAN_MOTION":14.81841645,"ECCENTRICITY":0.00166094,"INCLINATION":82.4945,"RA_OF_ASC_NODE":208.7855,"ARG_OF_PERICENTER":196.5076,"MEAN_ANOMALY":163.56,"EPHEMERIS_TYPE":0,"CLASSIFICATION_TYPE":"U","NORAD_CAT_ID":21423,"ELEMENT_SET_NO":999,"REV_AT_EPOCH":85487,"BSTAR":5.8402369e-5,"MEAN_MOTION_DOT":4.86e-6,"MEAN_MOTION_DDOT":0},{"OBJECT_NAME":"ERS-1","OBJECT_ID":"1991-050A","EPOCH":"2026-03-21T22:20:58.895808","MEAN_MOTION":14.3945813,"ECCENTRICITY":0.00323156,"INCLINATION":98.7872,"RA_OF_ASC_NODE":99.4731,"ARG_OF_PERICENTER":164.1269,"MEAN_ANOMALY":196.0939,"EPHEMERIS_TYPE":0,"CLASSIFICATION_TYPE":"U","NORAD_CAT_ID":21574,"ELEMENT_SET_NO":999,"REV_AT_EPOCH":81749,"BSTAR":0.00010352287,"MEAN_MOTION_DOT":2.78e-6,"MEAN_MOTION_DDOT":0},{"OBJECT_NAME":"ARIANE 40 R/B","OBJECT_ID":"1991-050F","EPOCH":"2026-03-21T21:12:33.367392","MEAN_MOTION":14.42901839,"ECCENTRICITY":0.00039419,"INCLINATION":98.1987,"RA_OF_ASC_NODE":132.6611,"ARG_OF_PERICENTER":54.4931,"MEAN_ANOMALY":305.6627,"EPHEMERIS_TYPE":0,"CLASSIFICATION_TYPE":"U","NORAD_CAT_ID":21610,"ELEMENT_SET_NO":999,"REV_AT_EPOCH":82075,"BSTAR":8.9125595e-5,"MEAN_MOTION_DOT":2.56e-6,"MEAN_MOTION_DDOT":0},{"OBJECT_NAME":"INTERCOSMOS 25","OBJECT_ID":"1991-086A","EPOCH":"2026-03-21T21:00:02.228256","MEAN_MOTION":12.12041629,"ECCENTRICITY":0.14867705,"INCLINATION":82.6029,"RA_OF_ASC_NODE":302.6427,"ARG_OF_PERICENTER":90.6785,"MEAN_ANOMALY":286.4245,"EPHEMERIS_TYPE":0,"CLASSIFICATION_TYPE":"U","NORAD_CAT_ID":21819,"ELEMENT_SET_NO":999,"REV_AT_EPOCH":49816,"BSTAR":0.00031465678,"MEAN_MOTION_DOT":1.643e-5,"MEAN_MOTION_DDOT":0},{"OBJECT_NAME":"SL-8 R/B","OBJECT_ID":"1992-008B","EPOCH":"2026-03-21T23:00:52.399584","MEAN_MOTION":13.75969565,"ECCENTRICITY":0.00359107,"INCLINATION":82.9223,"RA_OF_ASC_NODE":258.6486,"ARG_OF_PERICENTER":100.1688,"MEAN_ANOMALY":63.3013,"EPHEMERIS_TYPE":0,"CLASSIFICATION_TYPE":"U","NORAD_CAT_ID":21876,"ELEMENT_SET_NO":999,"REV_AT_EPOCH":71110,"BSTAR":-1.5304773e-5,"MEAN_MOTION_DOT":1.0e-8,"MEAN_MOTION_DDOT":0},{"OBJECT_NAME":"SL-8 R/B","OBJECT_ID":"1992-020B","EPOCH":"2026-03-21T22:26:26.599776","MEAN_MOTION":13.7555028,"ECCENTRICITY":0.00275795,"INCLINATION":82.9318,"RA_OF_ASC_NODE":144.6705,"ARG_OF_PERICENTER":262.9742,"MEAN_ANOMALY":270.1032,"EPHEMERIS_TYPE":0,"CLASSIFICATION_TYPE":"U","NORAD_CAT_ID":21938,"ELEMENT_SET_NO":999,"REV_AT_EPOCH":70281,"BSTAR":3.2318333e-5,"MEAN_MOTION_DOT":4.6e-7,"MEAN_MOTION_DDOT":0},{"OBJECT_NAME":"USA 81","OBJECT_ID":"1992-023A","EPOCH":"2026-03-21T19:32:12.382944","MEAN_MOTION":14.32371672,"ECCENTRICITY":0.00020882,"INCLINATION":85.0061,"RA_OF_ASC_NODE":124.4453,"ARG_OF_PERICENTER":69.6759,"MEAN_ANOMALY":290.4658,"EPHEMERIS_TYPE":0,"CLASSIFICATION_TYPE":"U","NORAD_CAT_ID":21949,"ELEMENT_SET_NO":999,"REV_AT_EPOCH":9652,"BSTAR":4.974825e-5,"MEAN_MOTION_DOT":1.54e-6,"MEAN_MOTION_DDOT":0},{"OBJECT_NAME":"COSMOS 2219","OBJECT_ID":"1992-076A","EPOCH":"2026-03-21T21:36:12.897792","MEAN_MOTION":14.14092986,"ECCENTRICITY":0.00182698,"INCLINATION":71.0638,"RA_OF_ASC_NODE":352.5453,"ARG_OF_PERICENTER":189.6632,"MEAN_ANOMALY":170.4142,"EPHEMERIS_TYPE":0,"CLASSIFICATION_TYPE":"U","NORAD_CAT_ID":22219,"ELEMENT_SET_NO":999,"REV_AT_EPOCH":72010,"BSTAR":-4.9482898e-5,"MEAN_MOTION_DOT":-1.41e-6,"MEAN_MOTION_DDOT":0},{"OBJECT_NAME":"SL-16 R/B","OBJECT_ID":"1992-076B","EPOCH":"2026-03-22T00:04:08.000832","MEAN_MOTION":14.16862142,"ECCENTRICITY":0.00106287,"INCLINATION":71.0007,"RA_OF_ASC_NODE":162.4385,"ARG_OF_PERICENTER":73.4816,"MEAN_ANOMALY":99.5525,"EPHEMERIS_TYPE":0,"CLASSIFICATION_TYPE":"U","NORAD_CAT_ID":22220,"ELEMENT_SET_NO":999,"REV_AT_EPOCH":72357,"BSTAR":0.00015809216,"MEAN_MOTION_DOT":2.69e-6,"MEAN_MOTION_DDOT":0},{"OBJECT_NAME":"COSMOS 2221","OBJECT_ID":"1992-080A","EPOCH":"2026-03-21T21:01:09.831936","MEAN_MOTION":14.96247941,"ECCENTRICITY":0.00150626,"INCLINATION":82.5001,"RA_OF_ASC_NODE":267.4046,"ARG_OF_PERICENTER":147.0363,"MEAN_ANOMALY":213.1801,"EPHEMERIS_TYPE":0,"CLASSIFICATION_TYPE":"U","NORAD_CAT_ID":22236,"ELEMENT_SET_NO":999,"REV_AT_EPOCH":78261,"BSTAR":0.00017485243,"MEAN_MOTION_DOT":2.003e-5,"MEAN_MOTION_DDOT":0},{"OBJECT_NAME":"SL-16 R/B","OBJECT_ID":"1992-093B","EPOCH":"2026-03-21T21:28:28.271424","MEAN_MOTION":14.1544989,"ECCENTRICITY":0.00063142,"INCLINATION":71.0237,"RA_OF_ASC_NODE":338.6464,"ARG_OF_PERICENTER":281.452,"MEAN_ANOMALY":78.5893,"EPHEMERIS_TYPE":0,"CLASSIFICATION_TYPE":"U","NORAD_CAT_ID":22285,"ELEMENT_SET_NO":999,"REV_AT_EPOCH":71488,"BSTAR":0.0001899746,"MEAN_MOTION_DOT":3.23e-6,"MEAN_MOTION_DDOT":0},{"OBJECT_NAME":"COSMOS 2228","OBJECT_ID":"1992-094A","EPOCH":"2026-03-21T21:13:01.456032","MEAN_MOTION":14.97249714,"ECCENTRICITY":0.00165952,"INCLINATION":82.5178,"RA_OF_ASC_NODE":225.6335,"ARG_OF_PERICENTER":260.1072,"MEAN_ANOMALY":99.8277,"EPHEMERIS_TYPE":0,"CLASSIFICATION_TYPE":"U","NORAD_CAT_ID":22286,"ELEMENT_SET_NO":999,"REV_AT_EPOCH":77788,"BSTAR":0.00024792349,"MEAN_MOTION_DOT":2.903e-5,"MEAN_MOTION_DDOT":0},{"OBJECT_NAME":"SL-16 R/B","OBJECT_ID":"1993-016B","EPOCH":"2026-03-21T17:23:03.817536","MEAN_MOTION":14.15306825,"ECCENTRICITY":0.00123517,"INCLINATION":71.008,"RA_OF_ASC_NODE":189.9063,"ARG_OF_PERICENTER":298.4496,"MEAN_ANOMALY":61.5381,"EPHEMERIS_TYPE":0,"CLASSIFICATION_TYPE":"U","NORAD_CAT_ID":22566,"ELEMENT_SET_NO":999,"REV_AT_EPOCH":70387,"BSTAR":-9.7245959e-5,"MEAN_MOTION_DOT":-2.37e-6,"MEAN_MOTION_DDOT":0},{"OBJECT_NAME":"COSMOS 2242","OBJECT_ID":"1993-024A","EPOCH":"2026-03-21T22:31:12.772128","MEAN_MOTION":14.96598199,"ECCENTRICITY":0.00149083,"INCLINATION":82.5153,"RA_OF_ASC_NODE":254.9971,"ARG_OF_PERICENTER":263.8566,"MEAN_ANOMALY":96.0958,"EPHEMERIS_TYPE":0,"CLASSIFICATION_TYPE":"U","NORAD_CAT_ID":22626,"ELEMENT_SET_NO":999,"REV_AT_EPOCH":78222,"BSTAR":0.00017351103,"MEAN_MOTION_DOT":2.005e-5,"MEAN_MOTION_DDOT":0}]
